{"type":"FeatureCollection","features":[{"type":"Feature","properties":{"route":"1","name":"Трамвай 1: Москворецкий рынок => Чертаново Южное"},"geometry":{"type":"LineString","coordinates":[[37.6082785,55.6581775],[37.6086768,55.6584945],[37.6052986,55.6563573],[37.6053067,55.6559683],[37.605363,55.65347],[37.6053549,55.6538846],[37.6054367,55.6495427],[37.6054381,55.6490616],[37.6055039,55.6454752],[37.6055092,55.6458623],[37.6055682,55.6426878],[37.6055628,55.6431214],[37.6055388,55.6404817],[37.6055237,55.6400743],[37.6050979,55.6378044],[37.6052101,55.6381949],[37.6030448,55.6338374],[37.6032961,55.634153],[37.6008845,55.6312896],[37.601182,55.6316553],[37.5985678,55.62858],[37.598858,55.6289323],[37.5955859,55.6239903],[37.5958972,55.6246496],[37.5937041,55.6195212],[37.5938255,55.6199535],[37.5928251,55.6164696],[37.5929578,55.6169326],[37.591551,55.6121152],[37.5914514,55.6116368],[37.5908611,55.6091529],[37.5909511,55.6095649],[37.590207,55.606317],[37.590106,55.6059082],[37.5892916,55.602558],[37.589373,55.6029138],[37.5889224,55.6010541],[37.5888272,55.600637],[37.5884112,55.5988908],[37.5885013,55.59928],[37.5878589,55.5965613],[37.5878005,55.5962499]]}},{"type":"Feature","properties":{"route":"7","name":"Трамвай 7: Белорусский вокзал => Метро «Бульвар Рокоссовского»"},"geometry":{"type":"LineString","coordinates":[[37.5837436,55.77654],[37.5834436,55.77633],[37.5862706,55.7769698],[37.5961427,55.78351],[37.6067836,55.7843476],[37.6068988,55.7843291],[37.6100069,55.7832579],[37.610053,55.7832616],[37.6129704,55.7794071],[37.6400662,55.779765],[37.6499983,55.7759766],[37.6707054,55.7817778],[37.6808185,55.789147],[37.6984053,55.7943551],[37.7261858,55.8169954],[37.7328484,55.8150204]]}},{"type":"Feature","properties":{"route":"11","name":"Трамвай 11: Усадьба Останкино => 15-я Парковая улица"},"geometry":{"type":"LineString","coordinates":[[37.6152831,55.8238406],[37.6276634,55.8217919],[37.6383152,55.8237506],[37.6717544,55.8189341],[37.7459738,55.7841248],[37.7617639,55.7867392],[37.7775099,55.7920469],[37.7831623,55.7928325],[37.799752,55.7932191],[37.8137915,55.7934673],[37.819361,55.7935717]]}},{"type":"Feature","properties":{"route":"12","name":"Трамвай 12: Восточное Измайлово => МЦК Дубровка"},"geometry":{"type":"LineString","coordinates":[[37.8206066,55.7936411],[37.8115099,55.79349],[37.7979728,55.7932834],[37.7938775,55.793234],[37.7828209,55.7928649],[37.770549,55.7901098],[37.7602699,55.7868101],[37.7222622,55.782362],[37.6955147,55.7479581],[37.6820327,55.7469224],[37.6638304,55.7314323],[37.6633273,55.7313199],[37.6613219,55.7301913],[37.6639746,55.7240203]]}},{"type":"Feature","properties":{"route":"17","name":"Трамвай 17: Усадьба Останкино => Медведково"},"geometry":{"type":"LineString","coordinates":[[37.6152831,55.8238406],[37.6211285,55.8218193],[37.6283943,55.8217882],[37.6339152,55.8220503],[37.6464118,55.827081],[37.649025,55.8290668],[37.6487259,55.8287451],[37.6518376,55.831649],[37.657973,55.836808],[37.665012,55.8427203],[37.6653431,55.8429638],[37.6650297,55.8427128],[37.6706684,55.8507866],[37.6706766,55.8504439],[37.6622835,55.8564455],[37.6603501,55.8591316],[37.6602394,55.8594644],[37.6616406,55.8642999],[37.6617661,55.8646111],[37.6636135,55.8683195],[37.6634979,55.8680155],[37.6602014,55.870229],[37.6524767,55.8714108],[37.6480517,55.8717076],[37.6371237,55.8744226],[37.636173,55.8776263],[37.6438796,55.8874129]]}},{"type":"Feature","properties":{"route":"25","name":"Трамвай 25: Усадьба Останкино => Сокольническая Застава"},"geometry":{"type":"LineString","coordinates":[[37.6152831,55.8238406],[37.6216486,55.8218194],[37.6209265,55.82182],[37.6283943,55.8217882],[37.6336831,55.8220561],[37.6383152,55.8237506],[37.6464118,55.827081],[37.6708354,55.8191964],[37.6781778,55.8174194],[37.6804364,55.7926104],[37.6796214,55.7916683],[37.6794123,55.7919868],[37.6794659,55.7918534]]}},{"type":"Feature","properties":{"route":"26","name":"Трамвай 26: Метро «Университет» => Метро «Октябрьская»"},"geometry":{"type":"LineString","coordinates":[[37.5376287,55.69213],[37.5395779,55.6910111],[37.544394,55.6882396],[37.5476365,55.6863702],[37.5515005,55.6841545],[37.590073,55.6829461],[37.5940205,55.6865681],[37.6115205,55.6968345],[37.6141624,55.6996903],[37.6144674,55.7000268],[37.6125239,55.704308],[37.6106484,55.7076208],[37.6116292,55.7264491]]}},{"type":"Feature","properties":{"route":"28","name":"Трамвай 28: Метро «Сокол» => Проспект Маршала Жукова"},"geometry":{"type":"LineString","coordinates":[[37.5083582,55.8059829],[37.5087703,55.8057152],[37.5083086,55.8059559],[37.5083582,55.8059829],[37.5058795,55.8066694],[37.498727,55.8080108],[37.4945145,55.8088796],[37.4829565,55.8106803],[37.4761606,55.8104295],[37.4696201,55.8102247],[37.462924,55.8100361],[37.4640379,55.810043],[37.4629266,55.8100017],[37.462924,55.8100361],[37.4584651,55.8071631],[37.4542326,55.8057318],[37.4502777,55.8015727],[37.4543425,55.7940269],[37.4541104,55.7892535],[37.4551681,55.7847583],[37.4539977,55.780486]]}},{"type":"Feature","properties":{"route":"50","name":"Трамвай 50: Дом культуры «Компрессор» => Метро «Новослободская»"},"geometry":{"type":"LineString","coordinates":[[37.6495423,55.776329],[37.6455703,55.77933],[37.6172385,55.7785326],[37.6094021,55.7804501],[37.6063489,55.7848154],[37.7217362,55.7526265],[37.7194193,55.7521825],[37.7175733,55.7517981],[37.7172409,55.7517422],[37.7167207,55.7516815],[37.7157334,55.7515035],[37.7149332,55.7512867],[37.7136652,55.7510365],[37.713321,55.7510976],[37.7128773,55.7517277],[37.7121781,55.7529079],[37.7120642,55.7530531],[37.7116101,55.7532168],[37.7081863,55.7544111],[37.7065868,55.7549579],[37.6992746,55.7573612],[37.6956828,55.7585522],[37.6929828,55.7594666],[37.6884748,55.7610751],[37.6869386,55.7616355],[37.6862778,55.761871],[37.6838994,55.762689],[37.6834049,55.7627581],[37.680433,55.7630065],[37.6801953,55.7631187],[37.6801671,55.763262],[37.6803057,55.7641155],[37.6800979,55.7655478],[37.6798044,55.7671546],[37.6794979,55.7687353],[37.679056,55.7705877],[37.6786612,55.772195],[37.6784133,55.7732273],[37.677941,55.7748681],[37.6777867,55.7754174],[37.6775152,55.7756053],[37.6748049,55.7769531],[37.6740872,55.7772966],[37.6737268,55.7772608],[37.6731392,55.7769547],[37.6712713,55.7761268],[37.6708585,55.7760873],[37.6706698,55.7761764],[37.669605,55.7770111],[37.6688917,55.7776457],[37.6675204,55.7786434],[37.6665044,55.7792887],[37.6663049,55.7793594],[37.6660501,55.7793864],[37.6658481,55.7793545],[37.6646196,55.7788627],[37.6629366,55.7781629],[37.658813,55.776271],[37.658205,55.7760372],[37.6571614,55.7756921],[37.6563076,55.7754616],[37.6545317,55.7751078],[37.6536738,55.7749164],[37.652491,55.7746139],[37.6522745,55.7746437],[37.6515883,55.7750162],[37.650071,55.7759977],[37.6493037,55.7764462],[37.6489765,55.7767292],[37.6483241,55.7774783],[37.6462431,55.7788576],[37.644833,55.7797721],[37.6438802,55.7797425],[37.6415935,55.779715],[37.6411425,55.7797357],[37.6388384,55.7799754],[37.6345339,55.7804252],[37.6335502,55.7805265],[37.6329876,55.7805606],[37.631994,55.7807326],[37.6317599,55.780768],[37.6313614,55.7806986],[37.6311953,55.7805042],[37.6310098,55.7799343],[37.6308364,55.779298],[37.6306884,55.7785723],[37.6306038,55.7783902],[37.6301963,55.778342],[37.6290279,55.7783423],[37.6278134,55.7783345],[37.6266729,55.7784077],[37.6243242,55.7788625],[37.6230165,55.7791273],[37.6224156,55.7792911],[37.6218882,55.7794579],[37.6214324,55.7796218],[37.6207528,55.7798872],[37.6205427,55.7799222],[37.6203014,55.7798786],[37.6200935,55.779753],[37.6185849,55.7786938],[37.6183726,55.7785804],[37.6180658,55.7785279],[37.6176495,55.7784827],[37.6174336,55.7784754],[37.6170031,55.778544],[37.6154761,55.7788183],[37.6140366,55.7790807],[37.6133037,55.7793298],[37.6128005,55.7796069],[37.6123544,55.7797836],[37.6114354,55.7799742],[37.6098025,55.780305],[37.6090907,55.7805585],[37.6088962,55.7807367],[37.6089802,55.7808677],[37.6092247,55.7811017],[37.6109387,55.7827417],[37.6110634,55.7828925],[37.6109684,55.7830313],[37.6100906,55.7832989],[37.6083125,55.7838984],[37.6070662,55.7843249],[37.6066441,55.7844714],[37.6062234,55.7846449],[37.6062037,55.7847643],[37.6066635,55.7851071],[37.6072229,55.7855672],[37.6084851,55.7867853],[37.6092413,55.7875114],[37.6097341,55.7879845],[37.6098008,55.7880723],[37.6098602,55.7882222],[37.6099544,55.7884201],[37.6099672,55.7884785],[37.6099502,55.7889435],[37.6099134,55.7899643],[37.6096469,55.7900983],[37.6081762,55.7899957],[37.6062272,55.7898573],[37.6040953,55.7897008],[37.6017282,55.7895274],[37.6003967,55.7894159],[37.6002027,55.7892692],[37.6002162,55.7891217],[37.6006171,55.7877998],[37.6010732,55.7867082],[37.6016443,55.785287],[37.6016464,55.7851622],[37.6014641,55.7849698],[37.6012408,55.7847971],[37.6011641,55.7845798],[37.6014787,55.7832334],[37.6015658,55.7827264],[37.6016708,55.781895],[37.6017647,55.781151],[37.602188,55.7798375],[37.6024559,55.7795959],[37.602689,55.7794972],[37.6029359,55.7793643],[37.6037118,55.7788778],[37.6039112,55.7787805],[37.6041028,55.7788093]]}}]}
