{"type": "FeatureCollection", "features": [{"type": "Feature", "geometry": {"type": "Point", "coordinates": [37.67950094, 55.79193124]}, "properties": {"stop": "1000242", "name": "Метро «Сокольники»", "routes": [25]}}, {"type": "Feature", "geometry": {"type": "Point", "coordinates": [37.66395416, 55.72424032]}, "properties": {"stop": "1000509", "name": "Шарикоподшипниковская ул.", "routes": [12]}}, {"type": "Feature", "geometry": {"type": "Point", "coordinates": [37.61175601, 55.72647653]}, "properties": {"stop": "1000531", "name": "Метро «Октябрьская»", "routes": [26]}}, {"type": "Feature", "geometry": {"type": "Point", "coordinates": [37.61010557, 55.78888604]}, "properties": {"stop": "1000594", "name": "МИИТ", "routes": [50]}}, {"type": "Feature", "geometry": {"type": "Point", "coordinates": [37.60493144, 55.7896183]}, "properties": {"stop": "1000596", "name": "Дворец культуры МИИТ", "routes": [50]}}, {"type": "Feature", "geometry": {"type": "Point", "coordinates": [37.67884812, 55.77201601]}, "properties": {"stop": "1000865", "name": "Метро «Бауманская»", "routes": [50]}}, {"type": "Feature", "geometry": {"type": "Point", "coordinates": [37.67843822, 55.77263602]}, "properties": {"stop": "1000866", "name": "Метро «Бауманская»", "routes": [50]}}, {"type": "Feature", "geometry": {"type": "Point", "coordinates": [37.67929408, 55.76913697]}, "properties": {"stop": "1001044", "name": "Аптекарский переулок", "routes": [50]}}, {"type": "Feature", "geometry": {"type": "Point", "coordinates": [37.61162365, 55.72704107]}, "properties": {"stop": "1001581", "name": "Метро «Октябрьская»", "routes": [26]}}, {"type": "Feature", "geometry": {"type": "Point", "coordinates": [37.72564519, 55.75406834]}, "properties": {"stop": "1001697", "name": "Проезд Энтузиастов", "routes": [50]}}, {"type": "Feature", "geometry": {"type": "Point", "coordinates": [37.68907251, 55.8167224]}, "properties": {"stop": "1001713", "name": "Богатырский мост", "routes": [11]}}, {"type": "Feature", "geometry": {"type": "Point", "coordinates": [37.58343516, 55.77634643]}, "properties": {"stop": "1001795", "name": "Белорусский вокзал", "routes": [7]}}, {"type": "Feature", "geometry": {"type": "Point", "coordinates": [37.68092463, 55.78931715]}, "properties": {"stop": "1002188", "name": "Метро «Сокольники»", "routes": [7]}}, {"type": "Feature", "geometry": {"type": "Point", "coordinates": [37.62317172, 55.7790867]}, "properties": {"stop": "1002615", "name": "Театр зверей имени Дурова", "routes": [7, 50]}}, {"type": "Feature", "geometry": {"type": "Point", "coordinates": [37.58994928, 55.77925154]}, "properties": {"stop": "1002779", "name": "ДК Зуева", "routes": [7]}}, {"type": "Feature", "geometry": {"type": "Point", "coordinates": [37.64898979, 55.82894054]}, "properties": {"stop": "1002848", "name": "Улица Сергея Эйзенштейна", "routes": [17]}}, {"type": "Feature", "geometry": {"type": "Point", "coordinates": [37.72077085, 55.75246234]}, "properties": {"stop": "1009094", "name": "Метро «Авиамоторная»", "routes": [12, 50]}}, {"type": "Feature", "geometry": {"type": "Point", "coordinates": [37.72082716, 55.75236271]}, "properties": {"stop": "1009095", "name": "Метро «Авиамоторная»", "routes": [12, 50]}}, {"type": "Feature", "geometry": {"type": "Point", "coordinates": [37.60644146, 55.78433889]}, "properties": {"stop": "1009846", "name": "Площадь Борьбы", "routes": [7, 50]}}, {"type": "Feature", "geometry": {"type": "Point", "coordinates": [37.64645487, 55.82702627]}, "properties": {"stop": "10148", "name": "ВДНХ (северный вход)", "routes": [11, 17, 25]}}, {"type": "Feature", "geometry": {"type": "Point", "coordinates": [37.64595709, 55.82728059]}, "properties": {"stop": "10149", "name": "ВДНХ (северный вход)", "routes": [11, 17, 25]}}, {"type": "Feature", "geometry": {"type": "Point", "coordinates": [37.63855518, 55.82395384]}, "properties": {"stop": "10150", "name": "Метро «ВДНХ»", "routes": [11, 17, 25]}}, {"type": "Feature", "geometry": {"type": "Point", "coordinates": [37.54800952, 55.68613066]}, "properties": {"stop": "10267", "name": "Центр здоровья детей", "routes": [26]}}, {"type": "Feature", "geometry": {"type": "Point", "coordinates": [37.47657816, 55.81035022]}, "properties": {"stop": "1032", "name": "Улица Академика Курчатова", "routes": [28]}}, {"type": "Feature", "geometry": {"type": "Point", "coordinates": [37.60161373, 55.78209511]}, "properties": {"stop": "10322", "name": "Метро «Менделеевская»", "routes": [50]}}, {"type": "Feature", "geometry": {"type": "Point", "coordinates": [37.60173587, 55.78228264]}, "properties": {"stop": "10323", "name": "Метро «Менделеевская»", "routes": [50]}}, {"type": "Feature", "geometry": {"type": "Point", "coordinates": [37.47657704, 55.81049225]}, "properties": {"stop": "1037", "name": "Ул. Акад. Курчатова", "routes": [28]}}, {"type": "Feature", "geometry": {"type": "Point", "coordinates": [37.73237164, 55.76537644]}, "properties": {"stop": "10406", "name": "Проспект Будённого, 24", "routes": [12]}}, {"type": "Feature", "geometry": {"type": "Point", "coordinates": [37.82268714, 55.79448147]}, "properties": {"stop": "10463", "name": "Восточное Измайлово", "routes": [11, 12]}}, {"type": "Feature", "geometry": {"type": "Point", "coordinates": [37.53585096, 55.69215235]}, "properties": {"stop": "10483", "name": "Метро «Университет»", "routes": [26]}}, {"type": "Feature", "geometry": {"type": "Point", "coordinates": [37.60050042, 55.78791637]}, "properties": {"stop": "10559", "name": "Тихвинский пер.", "routes": [50]}}, {"type": "Feature", "geometry": {"type": "Point", "coordinates": [37.60090453, 55.7875859]}, "properties": {"stop": "10560", "name": "Тихвинский пер.", "routes": [50]}}, {"type": "Feature", "geometry": {"type": "Point", "coordinates": [37.67773965, 55.7751935]}, "properties": {"stop": "10603", "name": "Басманный двор", "routes": [50]}}, {"type": "Feature", "geometry": {"type": "Point", "coordinates": [37.66984771, 55.77660998]}, "properties": {"stop": "10604", "name": "Ольховская улица", "routes": [50]}}, {"type": "Feature", "geometry": {"type": "Point", "coordinates": [37.66677288, 55.77922939]}, "properties": {"stop": "10605", "name": "Метро «Красносельская»", "routes": [50]}}, {"type": "Feature", "geometry": {"type": "Point", "coordinates": [37.73250897, 55.76541912]}, "properties": {"stop": "10702", "name": "Проспект Будённого, 24", "routes": [12]}}, {"type": "Feature", "geometry": {"type": "Point", "coordinates": [37.67823797, 55.71537983]}, "properties": {"stop": "10737", "name": "МЦК Дубровка", "routes": [12]}}, {"type": "Feature", "geometry": {"type": "Point", "coordinates": [37.66688661, 55.77887804]}, "properties": {"stop": "10745", "name": "Нижняя Красносельская улица", "routes": [50]}}, {"type": "Feature", "geometry": {"type": "Point", "coordinates": [37.68146317, 55.76279897]}, "properties": {"stop": "10755", "name": "Лефортовская наб.", "routes": [50]}}, {"type": "Feature", "geometry": {"type": "Point", "coordinates": [37.66196591, 55.85668426]}, "properties": {"stop": "10827", "name": "Верхоянская улица", "routes": [17]}}, {"type": "Feature", "geometry": {"type": "Point", "coordinates": [37.66133749, 55.85709678]}, "properties": {"stop": "10828", "name": "Верхоянская улица", "routes": [17]}}, {"type": "Feature", "geometry": {"type": "Point", "coordinates": [37.46243587, 55.80986251]}, "properties": {"stop": "1119", "name": "Метро «Щукинская»", "routes": [28]}}, {"type": "Feature", "geometry": {"type": "Point", "coordinates": [37.63883226, 55.82398187]}, "properties": {"stop": "11288", "name": "Метро «ВДНХ»", "routes": [11, 17, 25]}}, {"type": "Feature", "geometry": {"type": "Point", "coordinates": [37.65220128, 55.82493055]}, "properties": {"stop": "1212", "name": "Ярославская улица", "routes": [11, 25]}}, {"type": "Feature", "geometry": {"type": "Point", "coordinates": [37.65842513, 55.82284593]}, "properties": {"stop": "1213", "name": "Улица Бориса Галушкина, 17", "routes": [11, 25]}}, {"type": "Feature", "geometry": {"type": "Point", "coordinates": [37.66259641, 55.82155687]}, "properties": {"stop": "1214", "name": "Площадь Академика Люльки", "routes": [11, 25]}}, {"type": "Feature", "geometry": {"type": "Point", "coordinates": [37.6705852, 55.81920196]}, "properties": {"stop": "1215", "name": "Станция Юных натуралистов", "routes": [11, 25]}}, {"type": "Feature", "geometry": {"type": "Point", "coordinates": [37.67884815, 55.81729369]}, "properties": {"stop": "1216", "name": "Лингвистический университет", "routes": [11, 25]}}, {"type": "Feature", "geometry": {"type": "Point", "coordinates": [37.6789477, 55.81738739]}, "properties": {"stop": "1233", "name": "Лингвистический университет", "routes": [11, 25]}}, {"type": "Feature", "geometry": {"type": "Point", "coordinates": [37.66268397, 55.8216512]}, "properties": {"stop": "1235", "name": "Площадь Академика Люльки", "routes": [11, 25]}}, {"type": "Feature", "geometry": {"type": "Point", "coordinates": [37.64888199, 55.82637175]}, "properties": {"stop": "1238", "name": "Проспект Мира", "routes": [11, 25]}}, {"type": "Feature", "geometry": {"type": "Point", "coordinates": [37.6391092, 55.77997341]}, "properties": {"stop": "13134", "name": "Ботанический переулок", "routes": [7, 50]}}, {"type": "Feature", "geometry": {"type": "Point", "coordinates": [37.63967709, 55.77978343]}, "properties": {"stop": "13135", "name": "Ботанический переулок", "routes": [7, 50]}}, {"type": "Feature", "geometry": {"type": "Point", "coordinates": [37.61283405, 55.77937305]}, "properties": {"stop": "13136", "name": "4-й Самотёчный переулок", "routes": [7, 50]}}, {"type": "Feature", "geometry": {"type": "Point", "coordinates": [37.63100066, 55.77922948]}, "properties": {"stop": "13137", "name": "Ул. Гиляровского", "routes": [7, 50]}}, {"type": "Feature", "geometry": {"type": "Point", "coordinates": [37.64941735, 55.82968132]}, "properties": {"stop": "13139", "name": "Улица Сергея Эйзенштейна", "routes": [17]}}, {"type": "Feature", "geometry": {"type": "Point", "coordinates": [37.64179594, 55.88479352]}, "properties": {"stop": "13175", "name": "Улица Тихомирова", "routes": [17]}}, {"type": "Feature", "geometry": {"type": "Point", "coordinates": [37.67800527, 55.77521461]}, "properties": {"stop": "13382", "name": "Басманный двор", "routes": [50]}}, {"type": "Feature", "geometry": {"type": "Point", "coordinates": [37.46293639, 55.81003609]}, "properties": {"stop": "13637", "name": "Метро «Щукинская»", "routes": [28]}}, {"type": "Feature", "geometry": {"type": "Point", "coordinates": [37.66368467, 55.86834731]}, "properties": {"stop": "13707", "name": "Метро «Бабушкинская»", "routes": [17]}}, {"type": "Feature", "geometry": {"type": "Point", "coordinates": [37.65623168, 55.77552831]}, "properties": {"stop": "13919", "name": "Метро «Комсомольская»", "routes": [7, 50]}}, {"type": "Feature", "geometry": {"type": "Point", "coordinates": [37.65583193, 55.77528444]}, "properties": {"stop": "13920", "name": "Метро «Комсомольская»", "routes": [7, 50]}}, {"type": "Feature", "geometry": {"type": "Point", "coordinates": [37.68108697, 55.78926192]}, "properties": {"stop": "14018", "name": "Метро «Сокольники»", "routes": [7]}}, {"type": "Feature", "geometry": {"type": "Point", "coordinates": [37.4549463, 55.78032455]}, "properties": {"stop": "1408", "name": "Проспект Маршала Жукова", "routes": [28]}}, {"type": "Feature", "geometry": {"type": "Point", "coordinates": [37.45560771, 55.784334]}, "properties": {"stop": "1409", "name": "Улица Маршала Тухачевского", "routes": [28]}}, {"type": "Feature", "geometry": {"type": "Point", "coordinates": [37.45420905, 55.78879008]}, "properties": {"stop": "1410", "name": "Бассейн", "routes": [28]}}, {"type": "Feature", "geometry": {"type": "Point", "coordinates": [37.45450846, 55.79403487]}, "properties": {"stop": "1411", "name": "Ул. Рогова", "routes": [28]}}, {"type": "Feature", "geometry": {"type": "Point", "coordinates": [37.45037153, 55.80119738]}, "properties": {"stop": "1412", "name": "Живописная улица, 50", "routes": [28]}}, {"type": "Feature", "geometry": {"type": "Point", "coordinates": [37.63072917, 55.77919093]}, "properties": {"stop": "14133", "name": "Ул. Гиляровского", "routes": [7, 50]}}, {"type": "Feature", "geometry": {"type": "Point", "coordinates": [37.45019063, 55.80132797]}, "properties": {"stop": "1414", "name": "Живописная улица, 50", "routes": [28]}}, {"type": "Feature", "geometry": {"type": "Point", "coordinates": [37.45425561, 55.7943447]}, "properties": {"stop": "1415", "name": "Ул. Рогова", "routes": [28]}}, {"type": "Feature", "geometry": {"type": "Point", "coordinates": [37.45400168, 55.7893206]}, "properties": {"stop": "1416", "name": "Бассейн", "routes": [28]}}, {"type": "Feature", "geometry": {"type": "Point", "coordinates": [37.45513171, 55.78475302]}, "properties": {"stop": "1417", "name": "Ул. Марш. Тухачевского", "routes": [28]}}, {"type": "Feature", "geometry": {"type": "Point", "coordinates": [37.45359613, 55.78006437]}, "properties": {"stop": "1418", "name": "Проспект Маршала Жукова", "routes": [28]}}, {"type": "Feature", "geometry": {"type": "Point", "coordinates": [37.71547704, 55.75147797]}, "properties": {"stop": "14572", "name": "Метро «Авиамоторная»", "routes": [12, 50]}}, {"type": "Feature", "geometry": {"type": "Point", "coordinates": [37.49353232, 55.80899596]}, "properties": {"stop": "14864", "name": "Улица Панфилова", "routes": [28]}}, {"type": "Feature", "geometry": {"type": "Point", "coordinates": [37.49360758, 55.80909901]}, "properties": {"stop": "14865", "name": "Улица Панфилова", "routes": [28]}}, {"type": "Feature", "geometry": {"type": "Point", "coordinates": [37.68165749, 55.74687906]}, "properties": {"stop": "14922", "name": "Метро «Площадь Ильича»", "routes": [12]}}, {"type": "Feature", "geometry": {"type": "Point", "coordinates": [37.45330094, 55.80551417]}, "properties": {"stop": "15354", "name": "Детская поликлиника", "routes": [28]}}, {"type": "Feature", "geometry": {"type": "Point", "coordinates": [37.4537933, 55.80569873]}, "properties": {"stop": "15355", "name": "Детская п-ка", "routes": [28]}}, {"type": "Feature", "geometry": {"type": "Point", "coordinates": [37.69341695, 55.74765675]}, "properties": {"stop": "15495", "name": "Старообрядческая улица", "routes": [12]}}, {"type": "Feature", "geometry": {"type": "Point", "coordinates": [37.69482339, 55.74786714]}, "properties": {"stop": "15496", "name": "Старообрядческая улица", "routes": [12]}}, {"type": "Feature", "geometry": {"type": "Point", "coordinates": [37.66963112, 55.8459839]}, "properties": {"stop": "15726", "name": "Северянинский путепровод", "routes": [17]}}, {"type": "Feature", "geometry": {"type": "Point", "coordinates": [37.73699846, 55.76037197]}, "properties": {"stop": "16114", "name": "3-я улица Соколиной Горы", "routes": [12]}}, {"type": "Feature", "geometry": {"type": "Point", "coordinates": [37.63235141, 55.7807391]}, "properties": {"stop": "16514", "name": "Метро «Проспект Мира»", "routes": [7, 50]}}, {"type": "Feature", "geometry": {"type": "Point", "coordinates": [37.63249961, 55.78055104]}, "properties": {"stop": "16515", "name": "Метро «Проспект Мира»", "routes": [7, 50]}}, {"type": "Feature", "geometry": {"type": "Point", "coordinates": [37.6006964, 55.78482452]}, "properties": {"stop": "16606", "name": "Улица Палиха", "routes": [7]}}, {"type": "Feature", "geometry": {"type": "Point", "coordinates": [37.59664108, 55.78370364]}, "properties": {"stop": "16607", "name": "Лесная улица", "routes": [7]}}, {"type": "Feature", "geometry": {"type": "Point", "coordinates": [37.59629689, 55.78384494]}, "properties": {"stop": "16608", "name": "Лесная улица", "routes": [7]}}, {"type": "Feature", "geometry": {"type": "Point", "coordinates": [37.59229699, 55.78107394]}, "properties": {"stop": "16609", "name": "Миусское депо", "routes": [7]}}, {"type": "Feature", "geometry": {"type": "Point", "coordinates": [37.59247197, 55.78086451]}, "properties": {"stop": "16610", "name": "Миусское депо", "routes": [7]}}, {"type": "Feature", "geometry": {"type": "Point", "coordinates": [37.58970088, 55.77938614]}, "properties": {"stop": "16611", "name": "ДК Зуева", "routes": [7]}}, {"type": "Feature", "geometry": {"type": "Point", "coordinates": [37.58648288, 55.77726964]}, "properties": {"stop": "16612", "name": "Метро «Белорусская»", "routes": [7]}}, {"type": "Feature", "geometry": {"type": "Point", "coordinates": [37.58669239, 55.77714634]}, "properties": {"stop": "16614", "name": "Метро «Белорусская»", "routes": [7]}}, {"type": "Feature", "geometry": {"type": "Point", "coordinates": [37.74609084, 55.78379333]}, "properties": {"stop": "16916", "name": "Мост Окружной железной дороги", "routes": [11, 12]}}, {"type": "Feature", "geometry": {"type": "Point", "coordinates": [37.74594301, 55.78365525]}, "properties": {"stop": "16917", "name": "Мост Окружной железной дороги", "routes": [11, 12]}}, {"type": "Feature", "geometry": {"type": "Point", "coordinates": [37.61314841, 55.72705729]}, "properties": {"stop": "17247", "name": "Метро «Октябрьская»", "routes": [26]}}, {"type": "Feature", "geometry": {"type": "Point", "coordinates": [37.50857732, 55.80578153]}, "properties": {"stop": "17827", "name": "Метро «Сокол»", "routes": [28]}}, {"type": "Feature", "geometry": {"type": "Point", "coordinates": [37.49902646, 55.80797177]}, "properties": {"stop": "17830", "name": "Университет «РОСБИОТЕХ»", "routes": [28]}}, {"type": "Feature", "geometry": {"type": "Point", "coordinates": [37.4989788, 55.80787893]}, "properties": {"stop": "17831", "name": "Университет «РОСБИОТЕХ»", "routes": [28]}}, {"type": "Feature", "geometry": {"type": "Point", "coordinates": [37.50542906, 55.80679241]}, "properties": {"stop": "17832", "name": "Гидропроект", "routes": [28]}}, {"type": "Feature", "geometry": {"type": "Point", "coordinates": [37.50463194, 55.80679541]}, "properties": {"stop": "17833", "name": "Гидропроект", "routes": [28]}}, {"type": "Feature", "geometry": {"type": "Point", "coordinates": [37.65951787, 55.87035569]}, "properties": {"stop": "18279", "name": "Олонецкий проезд", "routes": [17]}}, {"type": "Feature", "geometry": {"type": "Point", "coordinates": [37.60681415, 55.71245611]}, "properties": {"stop": "21196", "name": "Серпуховский Вал", "routes": [26]}}, {"type": "Feature", "geometry": {"type": "Point", "coordinates": [37.71850165, 55.78165116]}, "properties": {"stop": "21450", "name": "Метро «Семёновская»", "routes": [12]}}, {"type": "Feature", "geometry": {"type": "Point", "coordinates": [37.64511275, 55.77943766]}, "properties": {"stop": "21542", "name": "Пантелеевская улица", "routes": [7, 50]}}, {"type": "Feature", "geometry": {"type": "Point", "coordinates": [37.60259878, 55.78514864]}, "properties": {"stop": "21544", "name": "Улица Палиха", "routes": [7]}}, {"type": "Feature", "geometry": {"type": "Point", "coordinates": [37.60160559, 55.78579101]}, "properties": {"stop": "21549", "name": "Улица Палиха", "routes": [50]}}, {"type": "Feature", "geometry": {"type": "Point", "coordinates": [37.60112545, 55.78448009]}, "properties": {"stop": "21550", "name": "Улица Палиха", "routes": [50]}}, {"type": "Feature", "geometry": {"type": "Point", "coordinates": [37.64543248, 55.77951421]}, "properties": {"stop": "21551", "name": "Пантелеевская улица", "routes": [7, 50]}}, {"type": "Feature", "geometry": {"type": "Point", "coordinates": [37.67074453, 55.81930408]}, "properties": {"stop": "21896", "name": "Станция Юных натуралистов", "routes": [11, 25]}}, {"type": "Feature", "geometry": {"type": "Point", "coordinates": [37.70916248, 55.75019468]}, "properties": {"stop": "22095", "name": "Горбатый путепровод", "routes": [12]}}, {"type": "Feature", "geometry": {"type": "Point", "coordinates": [37.70844553, 55.74993524]}, "properties": {"stop": "22096", "name": "Горбатый путепровод", "routes": [12]}}, {"type": "Feature", "geometry": {"type": "Point", "coordinates": [37.60507099, 55.78515112]}, "properties": {"stop": "22368", "name": "Площадь Борьбы", "routes": [7]}}, {"type": "Feature", "geometry": {"type": "Point", "coordinates": [37.60655513, 55.7849683]}, "properties": {"stop": "22369", "name": "Площадь Борьбы", "routes": [50]}}, {"type": "Feature", "geometry": {"type": "Point", "coordinates": [37.60980978, 55.78904404]}, "properties": {"stop": "22621", "name": "МИИТ", "routes": [50]}}, {"type": "Feature", "geometry": {"type": "Point", "coordinates": [37.65289941, 55.77473788]}, "properties": {"stop": "22638", "name": "МЦД Площадь трёх вокзалов", "routes": [7, 50]}}, {"type": "Feature", "geometry": {"type": "Point", "coordinates": [37.65317522, 55.77458851]}, "properties": {"stop": "22640", "name": "МЦД Площадь трёх вокзалов", "routes": [7, 50]}}, {"type": "Feature", "geometry": {"type": "Point", "coordinates": [37.64880049, 55.82629202]}, "properties": {"stop": "22810", "name": "Проспект Мира", "routes": [11, 25]}}, {"type": "Feature", "geometry": {"type": "Point", "coordinates": [37.71879049, 55.78259463]}, "properties": {"stop": "22812", "name": "Метро «Семёновская»", "routes": [11]}}, {"type": "Feature", "geometry": {"type": "Point", "coordinates": [37.71531926, 55.79186012]}, "properties": {"stop": "22814", "name": "Преображенское кладбище", "routes": [11]}}, {"type": "Feature", "geometry": {"type": "Point", "coordinates": [37.7234992, 55.77534646]}, "properties": {"stop": "22815", "name": "Вольная улица", "routes": [12]}}, {"type": "Feature", "geometry": {"type": "Point", "coordinates": [37.72335535, 55.77530992]}, "properties": {"stop": "22816", "name": "Вольная улица", "routes": [12]}}, {"type": "Feature", "geometry": {"type": "Point", "coordinates": [37.7167225, 55.78927165]}, "properties": {"stop": "22817", "name": "Улица Преображенский Вал", "routes": [11]}}, {"type": "Feature", "geometry": {"type": "Point", "coordinates": [37.67244582, 55.73798843]}, "properties": {"stop": "22949", "name": "Абельмановская Застава", "routes": [12]}}, {"type": "Feature", "geometry": {"type": "Point", "coordinates": [37.63795971, 55.87172511]}, "properties": {"stop": "2437", "name": "МФЦ «Южное Медведково»", "routes": [17]}}, {"type": "Feature", "geometry": {"type": "Point", "coordinates": [37.59088377, 55.59468022]}, "properties": {"stop": "2594", "name": "Чертаново Южное", "routes": [1]}}, {"type": "Feature", "geometry": {"type": "Point", "coordinates": [37.58807507, 55.59657683]}, "properties": {"stop": "2595", "name": "Чертаново Южное", "routes": [1]}}, {"type": "Feature", "geometry": {"type": "Point", "coordinates": [37.58842431, 55.5989509]}, "properties": {"stop": "2596", "name": "Поликлиника", "routes": [1]}}, {"type": "Feature", "geometry": {"type": "Point", "coordinates": [37.58896473, 55.60048714]}, "properties": {"stop": "2597", "name": "ОВД «Чертаново Южное»", "routes": [1]}}, {"type": "Feature", "geometry": {"type": "Point", "coordinates": [37.59102749, 55.60899713]}, "properties": {"stop": "2598", "name": "Чертановская ул., 44", "routes": [1]}}, {"type": "Feature", "geometry": {"type": "Point", "coordinates": [37.59215968, 55.61351128]}, "properties": {"stop": "2599", "name": "Чертаново Центральное", "routes": [1]}}, {"type": "Feature", "geometry": {"type": "Point", "coordinates": [37.59299208, 55.61623051]}, "properties": {"stop": "2600", "name": "Детская стоматологическая п-ка", "routes": [1]}}, {"type": "Feature", "geometry": {"type": "Point", "coordinates": [37.59899743, 55.62849035]}, "properties": {"stop": "2602", "name": "Школьный парк", "routes": [1]}}, {"type": "Feature", "geometry": {"type": "Point", "coordinates": [37.60102877, 55.63118209]}, "properties": {"stop": "2603", "name": "Футбольная школа Чертаново", "routes": [1]}}, {"type": "Feature", "geometry": {"type": "Point", "coordinates": [37.60393742, 55.63486141]}, "properties": {"stop": "2604", "name": "Сумской проезд", "routes": [1]}}, {"type": "Feature", "geometry": {"type": "Point", "coordinates": [37.60526029, 55.63774302]}, "properties": {"stop": "2605", "name": "Верхний Чертановский пруд", "routes": [1]}}, {"type": "Feature", "geometry": {"type": "Point", "coordinates": [37.60573152, 55.64036325]}, "properties": {"stop": "2606", "name": "Метро «Чертановская»", "routes": [1]}}, {"type": "Feature", "geometry": {"type": "Point", "coordinates": [37.60569728, 55.64306927]}, "properties": {"stop": "2607", "name": "Балаклавский проспект", "routes": [1]}}, {"type": "Feature", "geometry": {"type": "Point", "coordinates": [37.60565615, 55.6451741]}, "properties": {"stop": "2608", "name": "Черноморский бульв.", "routes": [1]}}, {"type": "Feature", "geometry": {"type": "Point", "coordinates": [37.60557104, 55.64941433]}, "properties": {"stop": "2609", "name": "Симферопольский бульвар, 20", "routes": [1]}}, {"type": "Feature", "geometry": {"type": "Point", "coordinates": [37.60547027, 55.65282905]}, "properties": {"stop": "2610", "name": "Метро «Каховская»", "routes": [1]}}, {"type": "Feature", "geometry": {"type": "Point", "coordinates": [37.60558607, 55.65634537]}, "properties": {"stop": "2611", "name": "Болотниковская улица", "routes": [1]}}, {"type": "Feature", "geometry": {"type": "Point", "coordinates": [37.60862856, 55.65841001]}, "properties": {"stop": "2612", "name": "Москворецкий рынок", "routes": [1]}}, {"type": "Feature", "geometry": {"type": "Point", "coordinates": [37.60520769, 55.65619014]}, "properties": {"stop": "2613", "name": "Болотниковская улица", "routes": [1]}}, {"type": "Feature", "geometry": {"type": "Point", "coordinates": [37.60528804, 55.65364496]}, "properties": {"stop": "2614", "name": "Метро «Каховская»", "routes": [1]}}, {"type": "Feature", "geometry": {"type": "Point", "coordinates": [37.60538678, 55.64911174]}, "properties": {"stop": "2615", "name": "Симферопольский бульвар, 20", "routes": [1]}}, {"type": "Feature", "geometry": {"type": "Point", "coordinates": [37.60545188, 55.64561675]}, "properties": {"stop": "2616", "name": "Черноморский бульвар", "routes": [1]}}, {"type": "Feature", "geometry": {"type": "Point", "coordinates": [37.6055104, 55.64261869]}, "properties": {"stop": "2617", "name": "Балаклавский проспект", "routes": [1]}}, {"type": "Feature", "geometry": {"type": "Point", "coordinates": [37.60549058, 55.64029108]}, "properties": {"stop": "2618", "name": "Метро «Чертановская»", "routes": [1]}}, {"type": "Feature", "geometry": {"type": "Point", "coordinates": [37.60508089, 55.63783765]}, "properties": {"stop": "2619", "name": "Верхний Чертановский пруд", "routes": [1]}}, {"type": "Feature", "geometry": {"type": "Point", "coordinates": [37.60309472, 55.6339017]}, "properties": {"stop": "2620", "name": "Сумской проезд", "routes": [1]}}, {"type": "Feature", "geometry": {"type": "Point", "coordinates": [37.60087457, 55.63134129]}, "properties": {"stop": "2621", "name": "Футбольная школа Чертаново", "routes": [1]}}, {"type": "Feature", "geometry": {"type": "Point", "coordinates": [37.59842823, 55.62872139]}, "properties": {"stop": "2622", "name": "Школьный парк", "routes": [1]}}, {"type": "Feature", "geometry": {"type": "Point", "coordinates": [37.59565143, 55.62422888]}, "properties": {"stop": "2623", "name": "Кинотеатр «Ашхабад»", "routes": [1]}}, {"type": "Feature", "geometry": {"type": "Point", "coordinates": [37.59277378, 55.61639525]}, "properties": {"stop": "2625", "name": "Детская стоматологическая п-ка", "routes": [1]}}, {"type": "Feature", "geometry": {"type": "Point", "coordinates": [37.59149031, 55.6117993]}, "properties": {"stop": "2626", "name": "Чертаново Центральное", "routes": [1]}}, {"type": "Feature", "geometry": {"type": "Point", "coordinates": [37.5888636, 55.60080494]}, "properties": {"stop": "2627", "name": "ОВД «Чертаново Южное»", "routes": [1]}}, {"type": "Feature", "geometry": {"type": "Point", "coordinates": [37.58788823, 55.59667811]}, "properties": {"stop": "2628", "name": "Чертаново Южное", "routes": [1]}}, {"type": "Feature", "geometry": {"type": "Point", "coordinates": [37.66177432, 55.86457503]}, "properties": {"stop": "2927", "name": "Печорская улица", "routes": [17]}}, {"type": "Feature", "geometry": {"type": "Point", "coordinates": [37.63910293, 55.88198239]}, "properties": {"stop": "3286", "name": "Поликлиника", "routes": [17]}}, {"type": "Feature", "geometry": {"type": "Point", "coordinates": [37.63693151, 55.87444009]}, "properties": {"stop": "3287", "name": "Культурно-досуговый центр", "routes": [17]}}, {"type": "Feature", "geometry": {"type": "Point", "coordinates": [37.63767508, 55.87175104]}, "properties": {"stop": "3288", "name": "МФЦ Южное Медведково", "routes": [17]}}, {"type": "Feature", "geometry": {"type": "Point", "coordinates": [37.64633695, 55.87148746]}, "properties": {"stop": "3289", "name": "Проезд Шокальского", "routes": [17]}}, {"type": "Feature", "geometry": {"type": "Point", "coordinates": [37.65163632, 55.87139526]}, "properties": {"stop": "3290", "name": "Сухонская улица", "routes": [17]}}, {"type": "Feature", "geometry": {"type": "Point", "coordinates": [37.65833397, 55.87035378]}, "properties": {"stop": "3291", "name": "Олонецкий проезд", "routes": [17]}}, {"type": "Feature", "geometry": {"type": "Point", "coordinates": [37.66336063, 55.86807931]}, "properties": {"stop": "3292", "name": "Метро «Бабушкинская»", "routes": [17]}}, {"type": "Feature", "geometry": {"type": "Point", "coordinates": [37.66135479, 55.86424614]}, "properties": {"stop": "3293", "name": "Печорская улица", "routes": [17]}}, {"type": "Feature", "geometry": {"type": "Point", "coordinates": [37.65995105, 55.85984921]}, "properties": {"stop": "3294", "name": "Радужная улица", "routes": [17]}}, {"type": "Feature", "geometry": {"type": "Point", "coordinates": [37.6650347, 55.85441424]}, "properties": {"stop": "3295", "name": "Берингов проезд", "routes": [17]}}, {"type": "Feature", "geometry": {"type": "Point", "coordinates": [37.67050688, 55.85052124]}, "properties": {"stop": "3296", "name": "Социальный фонд России", "routes": [17]}}, {"type": "Feature", "geometry": {"type": "Point", "coordinates": [37.6689648, 55.84567509]}, "properties": {"stop": "3297", "name": "Северянинский путепровод", "routes": [17]}}, {"type": "Feature", "geometry": {"type": "Point", "coordinates": [37.66534786, 55.84315257]}, "properties": {"stop": "3298", "name": "МЦК Ростокино", "routes": [17]}}, {"type": "Feature", "geometry": {"type": "Point", "coordinates": [37.65792893, 55.83697398]}, "properties": {"stop": "3299", "name": "Улица Докукина", "routes": [17]}}, {"type": "Feature", "geometry": {"type": "Point", "coordinates": [37.65264608, 55.83266096]}, "properties": {"stop": "3300", "name": "Сельскохозяйственная улица", "routes": [17]}}, {"type": "Feature", "geometry": {"type": "Point", "coordinates": [37.65211964, 55.831874]}, "properties": {"stop": "3316", "name": "Сельскохозяйственная улица", "routes": [17]}}, {"type": "Feature", "geometry": {"type": "Point", "coordinates": [37.65819636, 55.83693377]}, "properties": {"stop": "3317", "name": "Улица Докукина", "routes": [17]}}, {"type": "Feature", "geometry": {"type": "Point", "coordinates": [37.66524215, 55.84283841]}, "properties": {"stop": "3318", "name": "МЦК Ростокино", "routes": [17]}}, {"type": "Feature", "geometry": {"type": "Point", "coordinates": [37.67070145, 55.85073276]}, "properties": {"stop": "3320", "name": "Социальный фонд России", "routes": [17]}}, {"type": "Feature", "geometry": {"type": "Point", "coordinates": [37.66489151, 55.85472757]}, "properties": {"stop": "3321", "name": "Берингов проезд", "routes": [17]}}, {"type": "Feature", "geometry": {"type": "Point", "coordinates": [37.66023251, 55.85949898]}, "properties": {"stop": "3322", "name": "Радужная улица", "routes": [17]}}, {"type": "Feature", "geometry": {"type": "Point", "coordinates": [37.65240185, 55.87141353]}, "properties": {"stop": "3324", "name": "Сухонская улица", "routes": [17]}}, {"type": "Feature", "geometry": {"type": "Point", "coordinates": [37.64846077, 55.87171121]}, "properties": {"stop": "3325", "name": "Проезд Шокальского", "routes": [17]}}, {"type": "Feature", "geometry": {"type": "Point", "coordinates": [37.63721766, 55.87414701]}, "properties": {"stop": "3326", "name": "Культурно-досуговый центр", "routes": [17]}}, {"type": "Feature", "geometry": {"type": "Point", "coordinates": [37.63611544, 55.8779133]}, "properties": {"stop": "3327", "name": "Улица Молодцова", "routes": [17]}}, {"type": "Feature", "geometry": {"type": "Point", "coordinates": [37.63907886, 55.88162384]}, "properties": {"stop": "3328", "name": "Поликлиника", "routes": [17]}}, {"type": "Feature", "geometry": {"type": "Point", "coordinates": [37.64372646, 55.88737823]}, "properties": {"stop": "3329", "name": "Северное Медведково", "routes": [17]}}, {"type": "Feature", "geometry": {"type": "Point", "coordinates": [37.64258743, 55.88686436]}, "properties": {"stop": "3330", "name": "Северное Медведково", "routes": [17]}}, {"type": "Feature", "geometry": {"type": "Point", "coordinates": [37.63611889, 55.87889939]}, "properties": {"stop": "3331", "name": "Улица Молодцова", "routes": [17]}}, {"type": "Feature", "geometry": {"type": "Point", "coordinates": [37.64302665, 55.88584138]}, "properties": {"stop": "3333", "name": "Улица Тихомирова", "routes": [17]}}, {"type": "Feature", "geometry": {"type": "Point", "coordinates": [37.65008548, 55.77587563]}, "properties": {"stop": "3422", "name": "Каланчёвская улица", "routes": [7, 50]}}, {"type": "Feature", "geometry": {"type": "Point", "coordinates": [37.69947064, 55.79456422]}, "properties": {"stop": "3445", "name": "Трамв. депо им. Русакова", "routes": [7]}}, {"type": "Feature", "geometry": {"type": "Point", "coordinates": [37.64971228, 55.77634369]}, "properties": {"stop": "3450", "name": "Каланчёвская улица", "routes": [7, 50]}}, {"type": "Feature", "geometry": {"type": "Point", "coordinates": [37.62131379, 55.82176481]}, "properties": {"stop": "3609", "name": "Аргуновская улица", "routes": [11, 17, 25]}}, {"type": "Feature", "geometry": {"type": "Point", "coordinates": [37.62821348, 55.82175285]}, "properties": {"stop": "3610", "name": "Улица Цандера", "routes": [11, 17, 25]}}, {"type": "Feature", "geometry": {"type": "Point", "coordinates": [37.63369298, 55.82199764]}, "properties": {"stop": "3611", "name": "ВДНХ (южный вход)", "routes": [11, 17, 25]}}, {"type": "Feature", "geometry": {"type": "Point", "coordinates": [37.69410236, 55.81479706]}, "properties": {"stop": "3613", "name": "Богородский храм", "routes": [11]}}, {"type": "Feature", "geometry": {"type": "Point", "coordinates": [37.69781074, 55.81229936]}, "properties": {"stop": "3614", "name": "Инновационный университет", "routes": [7, 11]}}, {"type": "Feature", "geometry": {"type": "Point", "coordinates": [37.70357601, 55.80998018]}, "properties": {"stop": "3615", "name": "1-я Прогонная ул.", "routes": [7, 11]}}, {"type": "Feature", "geometry": {"type": "Point", "coordinates": [37.70608636, 55.80717974]}, "properties": {"stop": "3616", "name": "Телерадиокомпания «МИР»", "routes": [7, 11]}}, {"type": "Feature", "geometry": {"type": "Point", "coordinates": [37.70709936, 55.80466788]}, "properties": {"stop": "3617", "name": "Мосгорсуд", "routes": [7, 11]}}, {"type": "Feature", "geometry": {"type": "Point", "coordinates": [37.71265136, 55.79992558]}, "properties": {"stop": "3618", "name": "Улица Хромова", "routes": [7, 11]}}, {"type": "Feature", "geometry": {"type": "Point", "coordinates": [37.72008527, 55.78215255]}, "properties": {"stop": "3622", "name": "Метро «Семёновская»", "routes": [11, 12]}}, {"type": "Feature", "geometry": {"type": "Point", "coordinates": [37.73112375, 55.78258775]}, "properties": {"stop": "3623", "name": "Улица Ибрагимова", "routes": [11, 12]}}, {"type": "Feature", "geometry": {"type": "Point", "coordinates": [37.73864919, 55.78286096]}, "properties": {"stop": "3624", "name": "Фортунатовская ул.", "routes": [11, 12]}}, {"type": "Feature", "geometry": {"type": "Point", "coordinates": [37.76169693, 55.7866487]}, "properties": {"stop": "3627", "name": "Главная аллея", "routes": [11, 12]}}, {"type": "Feature", "geometry": {"type": "Point", "coordinates": [37.77820362, 55.79207947]}, "properties": {"stop": "3628", "name": "Измайловская площадь", "routes": [11, 12]}}, {"type": "Feature", "geometry": {"type": "Point", "coordinates": [37.78379377, 55.79281619]}, "properties": {"stop": "3629", "name": "3-я Парковая улица", "routes": [11, 12]}}, {"type": "Feature", "geometry": {"type": "Point", "coordinates": [37.78902938, 55.792988]}, "properties": {"stop": "3630", "name": "5-я Парковая улица", "routes": [11, 12]}}, {"type": "Feature", "geometry": {"type": "Point", "coordinates": [37.79476118, 55.79311915]}, "properties": {"stop": "3631", "name": "7-я Парковая улица", "routes": [11, 12]}}, {"type": "Feature", "geometry": {"type": "Point", "coordinates": [37.80028776, 55.79317447]}, "properties": {"stop": "3632", "name": "Метро «Первомайская»", "routes": [11, 12]}}, {"type": "Feature", "geometry": {"type": "Point", "coordinates": [37.8198454, 55.79350052]}, "properties": {"stop": "3633", "name": "15-я Парковая улица", "routes": [11, 12]}}, {"type": "Feature", "geometry": {"type": "Point", "coordinates": [37.81852669, 55.7935984]}, "properties": {"stop": "3636", "name": "15-я Парковая улица", "routes": [11, 12]}}, {"type": "Feature", "geometry": {"type": "Point", "coordinates": [37.8121004, 55.79349712]}, "properties": {"stop": "3637", "name": "13-я Парковая улица", "routes": [11, 12]}}, {"type": "Feature", "geometry": {"type": "Point", "coordinates": [37.79330963, 55.79321952]}, "properties": {"stop": "3638", "name": "7-я Парковая улица", "routes": [11, 12]}}, {"type": "Feature", "geometry": {"type": "Point", "coordinates": [37.78740798, 55.79308626]}, "properties": {"stop": "3639", "name": "5-я Парковая улица", "routes": [11, 12]}}, {"type": "Feature", "geometry": {"type": "Point", "coordinates": [37.78212551, 55.7927587]}, "properties": {"stop": "3640", "name": "3-я Парковая улица", "routes": [11, 12]}}, {"type": "Feature", "geometry": {"type": "Point", "coordinates": [37.73908137, 55.78309315]}, "properties": {"stop": "3644", "name": "Фортунатовская улица", "routes": [11, 12]}}, {"type": "Feature", "geometry": {"type": "Point", "coordinates": [37.73005338, 55.78269035]}, "properties": {"stop": "3645", "name": "Улица Ибрагимова", "routes": [11, 12]}}, {"type": "Feature", "geometry": {"type": "Point", "coordinates": [37.72186995, 55.78238945]}, "properties": {"stop": "3646", "name": "Метро «Семёновская»", "routes": [11, 12]}}, {"type": "Feature", "geometry": {"type": "Point", "coordinates": [37.717206, 55.78746136]}, "properties": {"stop": "3648", "name": "Улица Измайловский Вал", "routes": [11]}}, {"type": "Feature", "geometry": {"type": "Point", "coordinates": [37.71638709, 55.78924832]}, "properties": {"stop": "3649", "name": "Улица Преображенский Вал", "routes": [11]}}, {"type": "Feature", "geometry": {"type": "Point", "coordinates": [37.71486676, 55.7970052]}, "properties": {"stop": "3650", "name": "Метро «Преображенская площадь»", "routes": [7, 11]}}, {"type": "Feature", "geometry": {"type": "Point", "coordinates": [37.71291695, 55.80015014]}, "properties": {"stop": "3651", "name": "Улица Хромова", "routes": [7, 11]}}, {"type": "Feature", "geometry": {"type": "Point", "coordinates": [37.70748084, 55.80443371]}, "properties": {"stop": "3652", "name": "Мосгорсуд", "routes": [7, 11]}}, {"type": "Feature", "geometry": {"type": "Point", "coordinates": [37.70662416, 55.80682671]}, "properties": {"stop": "3653", "name": "Телерадиокомпания «МИР»", "routes": [7, 11]}}, {"type": "Feature", "geometry": {"type": "Point", "coordinates": [37.70393402, 55.81000988]}, "properties": {"stop": "3654", "name": "1-я Прогонная улица", "routes": [7, 11]}}, {"type": "Feature", "geometry": {"type": "Point", "coordinates": [37.69763443, 55.81258472]}, "properties": {"stop": "3655", "name": "Инновационный университет", "routes": [7, 11]}}, {"type": "Feature", "geometry": {"type": "Point", "coordinates": [37.68915058, 55.81691335]}, "properties": {"stop": "3656", "name": "Богатырский мост", "routes": [11]}}, {"type": "Feature", "geometry": {"type": "Point", "coordinates": [37.6339465, 55.82214444]}, "properties": {"stop": "3657", "name": "ВДНХ (южный вход)", "routes": [11, 17, 25]}}, {"type": "Feature", "geometry": {"type": "Point", "coordinates": [37.62890637, 55.8218625]}, "properties": {"stop": "3658", "name": "Улица Цандера", "routes": [11, 17, 25]}}, {"type": "Feature", "geometry": {"type": "Point", "coordinates": [37.62187219, 55.82192054]}, "properties": {"stop": "3659", "name": "Аргуновская улица", "routes": [11, 17, 25]}}, {"type": "Feature", "geometry": {"type": "Point", "coordinates": [37.68615588, 55.79922875]}, "properties": {"stop": "3662", "name": "Ул. Короленко", "routes": [25]}}, {"type": "Feature", "geometry": {"type": "Point", "coordinates": [37.68830626, 55.80849671]}, "properties": {"stop": "3663", "name": "2-й Ширяевский переулок", "routes": [25]}}, {"type": "Feature", "geometry": {"type": "Point", "coordinates": [37.68540604, 55.81065824]}, "properties": {"stop": "3664", "name": "Б. Ширяевская ул.", "routes": [25]}}, {"type": "Feature", "geometry": {"type": "Point", "coordinates": [37.70056572, 55.81657268]}, "properties": {"stop": "3665", "name": "Богородское", "routes": [7]}}, {"type": "Feature", "geometry": {"type": "Point", "coordinates": [37.70494203, 55.81876844]}, "properties": {"stop": "3666", "name": "Ланинский переулок", "routes": [7]}}, {"type": "Feature", "geometry": {"type": "Point", "coordinates": [37.71011632, 55.81963163]}, "properties": {"stop": "3667", "name": "Погонный проезд", "routes": [7]}}, {"type": "Feature", "geometry": {"type": "Point", "coordinates": [37.72105631, 55.81800234]}, "properties": {"stop": "3668", "name": "3-й проезд Подбельского", "routes": [7]}}, {"type": "Feature", "geometry": {"type": "Point", "coordinates": [37.81327101, 55.79339478]}, "properties": {"stop": "3691", "name": "13-я Парковая улица", "routes": [11, 12]}}, {"type": "Feature", "geometry": {"type": "Point", "coordinates": [37.72597918, 55.81698697]}, "properties": {"stop": "3692", "name": "5-й пр. Подбельского", "routes": [7]}}, {"type": "Feature", "geometry": {"type": "Point", "coordinates": [37.72699156, 55.81686572]}, "properties": {"stop": "3693", "name": "5-й пр. Подбельского", "routes": [7]}}, {"type": "Feature", "geometry": {"type": "Point", "coordinates": [37.72173105, 55.81835183]}, "properties": {"stop": "3694", "name": "3-й проезд Подбельского", "routes": [7]}}, {"type": "Feature", "geometry": {"type": "Point", "coordinates": [37.71625979, 55.81836239]}, "properties": {"stop": "3695", "name": "Игральная ул.", "routes": [7]}}, {"type": "Feature", "geometry": {"type": "Point", "coordinates": [37.70979649, 55.81977294]}, "properties": {"stop": "3696", "name": "Погонный проезд", "routes": [7]}}, {"type": "Feature", "geometry": {"type": "Point", "coordinates": [37.70534718, 55.81903485]}, "properties": {"stop": "3697", "name": "Ланинский переулок", "routes": [7]}}, {"type": "Feature", "geometry": {"type": "Point", "coordinates": [37.7008883, 55.81702234]}, "properties": {"stop": "3698", "name": "Богородское", "routes": [7]}}, {"type": "Feature", "geometry": {"type": "Point", "coordinates": [37.6852145, 55.81055324]}, "properties": {"stop": "3699", "name": "Б. Ширяевская ул.", "routes": [25]}}, {"type": "Feature", "geometry": {"type": "Point", "coordinates": [37.68764082, 55.8087641]}, "properties": {"stop": "3700", "name": "2-й Ширяевский переулок", "routes": [25]}}, {"type": "Feature", "geometry": {"type": "Point", "coordinates": [37.68612005, 55.79949205]}, "properties": {"stop": "3701", "name": "Ул. Короленко", "routes": [25]}}, {"type": "Feature", "geometry": {"type": "Point", "coordinates": [37.68664524, 55.79142768]}, "properties": {"stop": "3702", "name": "Клуб Русакова - Сцена «Мельников»", "routes": [7]}}, {"type": "Feature", "geometry": {"type": "Point", "coordinates": [37.70936603, 55.79516086]}, "properties": {"stop": "3703", "name": "Преображенская площадь", "routes": [7]}}, {"type": "Feature", "geometry": {"type": "Point", "coordinates": [37.82154062, 55.79364821]}, "properties": {"stop": "3707", "name": "Восточное Измайлово", "routes": [11, 12]}}, {"type": "Feature", "geometry": {"type": "Point", "coordinates": [37.66417052, 55.72367835]}, "properties": {"stop": "3788", "name": "Шарикоподшипниковская улица", "routes": [12]}}, {"type": "Feature", "geometry": {"type": "Point", "coordinates": [37.58945246, 55.60246308]}, "properties": {"stop": "3804", "name": "Чертановская улица, 53", "routes": [1]}}, {"type": "Feature", "geometry": {"type": "Point", "coordinates": [37.59394526, 55.61949019]}, "properties": {"stop": "3805", "name": "Чертановская ул., 28", "routes": [1]}}, {"type": "Feature", "geometry": {"type": "Point", "coordinates": [37.5937583, 55.61971205]}, "properties": {"stop": "3806", "name": "Чертановская ул., 28", "routes": [1]}}, {"type": "Feature", "geometry": {"type": "Point", "coordinates": [37.5892918, 55.60254477]}, "properties": {"stop": "3807", "name": "Чертановская улица, 53", "routes": [1]}}, {"type": "Feature", "geometry": {"type": "Point", "coordinates": [37.71434124, 55.79464714]}, "properties": {"stop": "3850", "name": "Метро «Преображенская площадь»", "routes": [11]}}, {"type": "Feature", "geometry": {"type": "Point", "coordinates": [37.73419408, 55.76358271]}, "properties": {"stop": "3863", "name": "5-я улица Соколиной Горы", "routes": [12]}}, {"type": "Feature", "geometry": {"type": "Point", "coordinates": [37.72829742, 55.76985337]}, "properties": {"stop": "3927", "name": "9-я улица Соколиной Горы", "routes": [12]}}, {"type": "Feature", "geometry": {"type": "Point", "coordinates": [37.73988521, 55.75737659]}, "properties": {"stop": "3930", "name": "Гаражная улица", "routes": [12]}}, {"type": "Feature", "geometry": {"type": "Point", "coordinates": [37.73982687, 55.75726262]}, "properties": {"stop": "3941", "name": "Гаражная улица", "routes": [12]}}, {"type": "Feature", "geometry": {"type": "Point", "coordinates": [37.72774494, 55.77063947]}, "properties": {"stop": "3943", "name": "9-я улица Соколиной Горы", "routes": [12]}}, {"type": "Feature", "geometry": {"type": "Point", "coordinates": [37.71553261, 55.81848072]}, "properties": {"stop": "3952", "name": "Игральная улица", "routes": [7]}}, {"type": "Feature", "geometry": {"type": "Point", "coordinates": [37.7258268, 55.7727669]}, "properties": {"stop": "4069", "name": "10-я улица Соколиной Горы", "routes": [12]}}, {"type": "Feature", "geometry": {"type": "Point", "coordinates": [37.80490753, 55.79337532]}, "properties": {"stop": "4070", "name": "Районный центр «Первомайский»", "routes": [11, 12]}}, {"type": "Feature", "geometry": {"type": "Point", "coordinates": [37.80625892, 55.79327873]}, "properties": {"stop": "4072", "name": "Районный центр «Первомайский»", "routes": [11, 12]}}, {"type": "Feature", "geometry": {"type": "Point", "coordinates": [37.79854007, 55.79327072]}, "properties": {"stop": "4073", "name": "Метро «Первомайская»", "routes": [11, 12]}}, {"type": "Feature", "geometry": {"type": "Point", "coordinates": [37.72620637, 55.77217249]}, "properties": {"stop": "4074", "name": "10-я улица Соколиной Горы", "routes": [12]}}, {"type": "Feature", "geometry": {"type": "Point", "coordinates": [37.68256222, 55.76292813]}, "properties": {"stop": "4161", "name": "Лефортовская набережная", "routes": [50]}}, {"type": "Feature", "geometry": {"type": "Point", "coordinates": [37.68025952, 55.76521016]}, "properties": {"stop": "4162", "name": "МГТУ имени Н.Э. Баумана", "routes": [50]}}, {"type": "Feature", "geometry": {"type": "Point", "coordinates": [37.68002092, 55.76665618]}, "properties": {"stop": "4163", "name": "Денисовский переулок", "routes": [50]}}, {"type": "Feature", "geometry": {"type": "Point", "coordinates": [37.67975659, 55.7679783]}, "properties": {"stop": "4164", "name": "Аптекарский переулок", "routes": [50]}}, {"type": "Feature", "geometry": {"type": "Point", "coordinates": [37.67372519, 55.77707564]}, "properties": {"stop": "4167", "name": "Поликлиника", "routes": [50]}}, {"type": "Feature", "geometry": {"type": "Point", "coordinates": [37.67044956, 55.77653641]}, "properties": {"stop": "4168", "name": "Ольховская улица", "routes": [50]}}, {"type": "Feature", "geometry": {"type": "Point", "coordinates": [37.64217475, 55.77959408]}, "properties": {"stop": "4172", "name": "Астраханский переулок", "routes": [7, 50]}}, {"type": "Feature", "geometry": {"type": "Point", "coordinates": [37.6345373, 55.7804434]}, "properties": {"stop": "4173", "name": "Метро «Проспект Мира»", "routes": [7, 50]}}, {"type": "Feature", "geometry": {"type": "Point", "coordinates": [37.62956519, 55.77836559]}, "properties": {"stop": "4174", "name": "Улица Щепкина", "routes": [7, 50]}}, {"type": "Feature", "geometry": {"type": "Point", "coordinates": [37.61683998, 55.77860272]}, "properties": {"stop": "4176", "name": "Самотёчная улица", "routes": [7, 50]}}, {"type": "Feature", "geometry": {"type": "Point", "coordinates": [37.61339067, 55.77930654]}, "properties": {"stop": "4177", "name": "4-й Самотёчный переулок", "routes": [7, 50]}}, {"type": "Feature", "geometry": {"type": "Point", "coordinates": [37.60917231, 55.78053319]}, "properties": {"stop": "4178", "name": "Селезнёвская улица", "routes": [7, 50]}}, {"type": "Feature", "geometry": {"type": "Point", "coordinates": [37.61100272, 55.78262541]}, "properties": {"stop": "4179", "name": "Улица Достоевского", "routes": [7, 50]}}, {"type": "Feature", "geometry": {"type": "Point", "coordinates": [37.6089579, 55.78711533]}, "properties": {"stop": "4180", "name": "Главный корпус МИИТ", "routes": [50]}}, {"type": "Feature", "geometry": {"type": "Point", "coordinates": [37.61039943, 55.78302671]}, "properties": {"stop": "4181", "name": "Улица Достоевского", "routes": [7, 50]}}, {"type": "Feature", "geometry": {"type": "Point", "coordinates": [37.6091626, 55.78114054]}, "properties": {"stop": "4182", "name": "Селезнёвская улица", "routes": [7, 50]}}, {"type": "Feature", "geometry": {"type": "Point", "coordinates": [37.6166926, 55.77847152]}, "properties": {"stop": "4184", "name": "Самотёчная улица", "routes": [7, 50]}}, {"type": "Feature", "geometry": {"type": "Point", "coordinates": [37.62313801, 55.77897066]}, "properties": {"stop": "4185", "name": "Театр зверей имени Дурова", "routes": [7, 50]}}, {"type": "Feature", "geometry": {"type": "Point", "coordinates": [37.62996712, 55.77826007]}, "properties": {"stop": "4186", "name": "Улица Щепкина", "routes": [7, 50]}}, {"type": "Feature", "geometry": {"type": "Point", "coordinates": [37.63426668, 55.78033636]}, "properties": {"stop": "4187", "name": "Метро «Проспект Мира»", "routes": [7, 50]}}, {"type": "Feature", "geometry": {"type": "Point", "coordinates": [37.66570764, 55.7791991]}, "properties": {"stop": "4190", "name": "Метро «Красносельская»", "routes": [7, 50]}}, {"type": "Feature", "geometry": {"type": "Point", "coordinates": [37.6733427, 55.77717624]}, "properties": {"stop": "4192", "name": "Поликлиника", "routes": [50]}}, {"type": "Feature", "geometry": {"type": "Point", "coordinates": [37.67977961, 55.76670192]}, "properties": {"stop": "4196", "name": "Денисовский переулок", "routes": [50]}}, {"type": "Feature", "geometry": {"type": "Point", "coordinates": [37.67997633, 55.76561047]}, "properties": {"stop": "4197", "name": "МГТУ имени Н.Э. Баумана", "routes": [50]}}, {"type": "Feature", "geometry": {"type": "Point", "coordinates": [37.68814406, 55.76110625]}, "properties": {"stop": "4198", "name": "Лефортовский мост", "routes": [50]}}, {"type": "Feature", "geometry": {"type": "Point", "coordinates": [37.48329928, 55.81053286]}, "properties": {"stop": "453", "name": "Пехотная улица", "routes": [28]}}, {"type": "Feature", "geometry": {"type": "Point", "coordinates": [37.69426254, 55.81493563]}, "properties": {"stop": "4531", "name": "Богородский храм", "routes": [11]}}, {"type": "Feature", "geometry": {"type": "Point", "coordinates": [37.48287667, 55.81068655]}, "properties": {"stop": "460", "name": "Пехотная улица", "routes": [28]}}, {"type": "Feature", "geometry": {"type": "Point", "coordinates": [37.72997799, 55.76801258]}, "properties": {"stop": "4657", "name": "8-я улица Соколиной Горы", "routes": [12]}}, {"type": "Feature", "geometry": {"type": "Point", "coordinates": [37.72136516, 55.77764821]}, "properties": {"stop": "4658", "name": "Кирпичная улица", "routes": [12]}}, {"type": "Feature", "geometry": {"type": "Point", "coordinates": [37.72132116, 55.77756426]}, "properties": {"stop": "4659", "name": "Кирпичная улица", "routes": [12]}}, {"type": "Feature", "geometry": {"type": "Point", "coordinates": [37.73015084, 55.76798773]}, "properties": {"stop": "4660", "name": "8-я улица Соколиной Горы", "routes": [12]}}, {"type": "Feature", "geometry": {"type": "Point", "coordinates": [37.73501869, 55.76250165]}, "properties": {"stop": "4661", "name": "5-я улица Соколиной Горы", "routes": [12]}}, {"type": "Feature", "geometry": {"type": "Point", "coordinates": [37.54002938, 55.6908799]}, "properties": {"stop": "4892", "name": "Драмтеатр", "routes": [26]}}, {"type": "Feature", "geometry": {"type": "Point", "coordinates": [37.54377134, 55.68867271]}, "properties": {"stop": "4893", "name": "Ленинский проспект", "routes": [26]}}, {"type": "Feature", "geometry": {"type": "Point", "coordinates": [37.55088954, 55.68463876]}, "properties": {"stop": "4894", "name": "Черёмушкинский рынок", "routes": [26]}}, {"type": "Feature", "geometry": {"type": "Point", "coordinates": [37.7161645, 55.75150237]}, "properties": {"stop": "5342", "name": "Метро «Авиамоторная»", "routes": [12, 50]}}, {"type": "Feature", "geometry": {"type": "Point", "coordinates": [37.6760721, 55.71818243]}, "properties": {"stop": "5387", "name": "Метро «Дубровка»", "routes": [12]}}, {"type": "Feature", "geometry": {"type": "Point", "coordinates": [37.53699175, 55.69260894]}, "properties": {"stop": "5457", "name": "Метро «Университет»", "routes": [26]}}, {"type": "Feature", "geometry": {"type": "Point", "coordinates": [37.71557242, 55.79196763]}, "properties": {"stop": "5854", "name": "Преображенское кладбище", "routes": [11]}}, {"type": "Feature", "geometry": {"type": "Point", "coordinates": [37.70119769, 55.74863737]}, "properties": {"stop": "6009", "name": "Душинская улица", "routes": [12]}}, {"type": "Feature", "geometry": {"type": "Point", "coordinates": [37.67860398, 55.74524225]}, "properties": {"stop": "6011", "name": "Библиотечная улица", "routes": [12]}}, {"type": "Feature", "geometry": {"type": "Point", "coordinates": [37.67672405, 55.74318985]}, "properties": {"stop": "6012", "name": "Новорогожская улица", "routes": [12]}}, {"type": "Feature", "geometry": {"type": "Point", "coordinates": [37.67422608, 55.74057473]}, "properties": {"stop": "6013", "name": "Малая Андроньевская улица", "routes": [12]}}, {"type": "Feature", "geometry": {"type": "Point", "coordinates": [37.67026601, 55.73521976]}, "properties": {"stop": "6014", "name": "Кинотеатр «Победа»", "routes": [12]}}, {"type": "Feature", "geometry": {"type": "Point", "coordinates": [37.66849532, 55.72188493]}, "properties": {"stop": "6016", "name": "ЦНИИТМАШ", "routes": [12]}}, {"type": "Feature", "geometry": {"type": "Point", "coordinates": [37.6746132, 55.72044752]}, "properties": {"stop": "6017", "name": "Новоостаповская ул.", "routes": [12]}}, {"type": "Feature", "geometry": {"type": "Point", "coordinates": [37.67652303, 55.71787208]}, "properties": {"stop": "6019", "name": "Метро «Дубровка»", "routes": [12]}}, {"type": "Feature", "geometry": {"type": "Point", "coordinates": [37.67388165, 55.72083739]}, "properties": {"stop": "6020", "name": "Новоостаповская улица", "routes": [12]}}, {"type": "Feature", "geometry": {"type": "Point", "coordinates": [37.66913948, 55.72198839]}, "properties": {"stop": "6021", "name": "ЦНИИТМАШ", "routes": [12]}}, {"type": "Feature", "geometry": {"type": "Point", "coordinates": [37.6634618, 55.73133132]}, "properties": {"stop": "6023", "name": "Метро «Пролетарская»", "routes": [12]}}, {"type": "Feature", "geometry": {"type": "Point", "coordinates": [37.67037214, 55.73487675]}, "properties": {"stop": "6024", "name": "Кинотеатр «Победа»", "routes": [12]}}, {"type": "Feature", "geometry": {"type": "Point", "coordinates": [37.67259894, 55.73794835]}, "properties": {"stop": "6025", "name": "Абельмановская Застава", "routes": [12]}}, {"type": "Feature", "geometry": {"type": "Point", "coordinates": [37.67741908, 55.74348693]}, "properties": {"stop": "6026", "name": "Новорогожская улица", "routes": [12]}}, {"type": "Feature", "geometry": {"type": "Point", "coordinates": [37.67909484, 55.74522631]}, "properties": {"stop": "6027", "name": "Библиотечная улица", "routes": [12]}}, {"type": "Feature", "geometry": {"type": "Point", "coordinates": [37.7020464, 55.74870511]}, "properties": {"stop": "6029", "name": "Душинская улица", "routes": [12]}}, {"type": "Feature", "geometry": {"type": "Point", "coordinates": [37.73757411, 55.75562951]}, "properties": {"stop": "6087", "name": "Улица Буракова", "routes": [12]}}, {"type": "Feature", "geometry": {"type": "Point", "coordinates": [37.73763786, 55.75573979]}, "properties": {"stop": "6090", "name": "Улица Буракова", "routes": [12]}}, {"type": "Feature", "geometry": {"type": "Point", "coordinates": [37.7085669, 55.75430749]}, "properties": {"stop": "6145", "name": "МЭИ", "routes": [50]}}, {"type": "Feature", "geometry": {"type": "Point", "coordinates": [37.69877343, 55.75758486]}, "properties": {"stop": "6146", "name": "Улица Лефортовский Вал", "routes": [50]}}, {"type": "Feature", "geometry": {"type": "Point", "coordinates": [37.69359889, 55.7592608]}, "properties": {"stop": "6147", "name": "1-й Краснокурсантский проезд", "routes": [50]}}, {"type": "Feature", "geometry": {"type": "Point", "coordinates": [37.69444216, 55.7588792]}, "properties": {"stop": "6149", "name": "1-й Краснокурсантский проезд", "routes": [50]}}, {"type": "Feature", "geometry": {"type": "Point", "coordinates": [37.69963718, 55.75718541]}, "properties": {"stop": "6150", "name": "Улица Лефортовский Вал", "routes": [50]}}, {"type": "Feature", "geometry": {"type": "Point", "coordinates": [37.70782279, 55.75447742]}, "properties": {"stop": "6151", "name": "МЭИ", "routes": [50]}}, {"type": "Feature", "geometry": {"type": "Point", "coordinates": [37.61705787, 55.8227811]}, "properties": {"stop": "6152", "name": "Усадьба Останкино", "routes": [11, 17, 25]}}, {"type": "Feature", "geometry": {"type": "Point", "coordinates": [37.61571397, 55.82346959]}, "properties": {"stop": "6153", "name": "Усадьба Останкино", "routes": [11, 17, 25]}}, {"type": "Feature", "geometry": {"type": "Point", "coordinates": [37.67586004, 55.78534016]}, "properties": {"stop": "6157", "name": "МЦД Митьково", "routes": [7]}}, {"type": "Feature", "geometry": {"type": "Point", "coordinates": [37.69116107, 55.7931836]}, "properties": {"stop": "6158", "name": "М. Остроумовская ул.", "routes": [7]}}, {"type": "Feature", "geometry": {"type": "Point", "coordinates": [37.69824516, 55.79429628]}, "properties": {"stop": "6159", "name": "Трамвайное депо имени Русакова", "routes": [7]}}, {"type": "Feature", "geometry": {"type": "Point", "coordinates": [37.69588962, 55.81489989]}, "properties": {"stop": "6160", "name": "Богородский храм", "routes": [7]}}, {"type": "Feature", "geometry": {"type": "Point", "coordinates": [37.69562276, 55.81492094]}, "properties": {"stop": "6162", "name": "Богородский храм", "routes": [7]}}, {"type": "Feature", "geometry": {"type": "Point", "coordinates": [37.67560718, 55.78526693]}, "properties": {"stop": "6164", "name": "МЦД Митьково", "routes": [7]}}, {"type": "Feature", "geometry": {"type": "Point", "coordinates": [37.67039099, 55.78170137]}, "properties": {"stop": "6165", "name": "Леснорядская улица", "routes": [7]}}, {"type": "Feature", "geometry": {"type": "Point", "coordinates": [37.66659557, 55.77971829]}, "properties": {"stop": "6166", "name": "Метро «Красносельская»", "routes": [7]}}, {"type": "Feature", "geometry": {"type": "Point", "coordinates": [37.70927947, 55.79524841]}, "properties": {"stop": "6242", "name": "Преображенская площадь", "routes": [7]}}, {"type": "Feature", "geometry": {"type": "Point", "coordinates": [37.68092823, 55.79257493]}, "properties": {"stop": "6246", "name": "ПКиО «Сокольники»", "routes": [25]}}, {"type": "Feature", "geometry": {"type": "Point", "coordinates": [37.77504648, 55.79145605]}, "properties": {"stop": "6257", "name": "Измайловская площадь", "routes": [11, 12]}}, {"type": "Feature", "geometry": {"type": "Point", "coordinates": [37.72392332, 55.75309599]}, "properties": {"stop": "6264", "name": "Д/к «Компрессор»", "routes": [12, 50]}}, {"type": "Feature", "geometry": {"type": "Point", "coordinates": [37.68816311, 55.76122152]}, "properties": {"stop": "6265", "name": "Лефортовский мост", "routes": [50]}}, {"type": "Feature", "geometry": {"type": "Point", "coordinates": [37.72378877, 55.75291464]}, "properties": {"stop": "6266", "name": "Д/к «Компрессор»", "routes": [12, 50]}}, {"type": "Feature", "geometry": {"type": "Point", "coordinates": [37.60876638, 55.79008834]}, "properties": {"stop": "6289", "name": "Ул. Образцова", "routes": [50]}}, {"type": "Feature", "geometry": {"type": "Point", "coordinates": [37.60447266, 55.78979413]}, "properties": {"stop": "6290", "name": "Дворец культуры МИИТ", "routes": [50]}}, {"type": "Feature", "geometry": {"type": "Point", "coordinates": [37.60257556, 55.78947323]}, "properties": {"stop": "6294", "name": "Минаевский переулок", "routes": [50]}}, {"type": "Feature", "geometry": {"type": "Point", "coordinates": [37.60909998, 55.78993401]}, "properties": {"stop": "6295", "name": "Улица Образцова", "routes": [50]}}, {"type": "Feature", "geometry": {"type": "Point", "coordinates": [37.690769, 55.79319443]}, "properties": {"stop": "6365", "name": "Малая Остроумовская улица", "routes": [7]}}, {"type": "Feature", "geometry": {"type": "Point", "coordinates": [37.68653569, 55.7915125]}, "properties": {"stop": "6366", "name": "Клуб Русакова - Сцена «Мельников»", "routes": [7]}}, {"type": "Feature", "geometry": {"type": "Point", "coordinates": [37.6089145, 55.78745457]}, "properties": {"stop": "6576", "name": "Главный корпус МИИТ", "routes": [50]}}, {"type": "Feature", "geometry": {"type": "Point", "coordinates": [37.60200011, 55.77994394]}, "properties": {"stop": "6594", "name": "Метро «Новослободская»", "routes": [50]}}, {"type": "Feature", "geometry": {"type": "Point", "coordinates": [37.60448405, 55.77881888]}, "properties": {"stop": "6595", "name": "Метро «Новослободская»", "routes": [50]}}, {"type": "Feature", "geometry": {"type": "Point", "coordinates": [37.60232677, 55.78000991]}, "properties": {"stop": "6596", "name": "Метро «Новослободская»", "routes": [50]}}, {"type": "Feature", "geometry": {"type": "Point", "coordinates": [37.60115188, 55.7895382]}, "properties": {"stop": "6598", "name": "Минаевский переулок", "routes": [50]}}, {"type": "Feature", "geometry": {"type": "Point", "coordinates": [37.6796462, 55.79171398]}, "properties": {"stop": "6741", "name": "Метро «Сокольники»", "routes": [25]}}, {"type": "Feature", "geometry": {"type": "Point", "coordinates": [37.6707031, 55.78173574]}, "properties": {"stop": "6760", "name": "Леснорядская улица", "routes": [7]}}, {"type": "Feature", "geometry": {"type": "Point", "coordinates": [37.68302898, 55.79569407]}, "properties": {"stop": "7111", "name": "Охотничья улица", "routes": [25]}}, {"type": "Feature", "geometry": {"type": "Point", "coordinates": [37.68880387, 55.80277099]}, "properties": {"stop": "7112", "name": "Майский просек", "routes": [25]}}, {"type": "Feature", "geometry": {"type": "Point", "coordinates": [37.69184905, 55.80546837]}, "properties": {"stop": "7113", "name": "Большая Оленья улица", "routes": [25]}}, {"type": "Feature", "geometry": {"type": "Point", "coordinates": [37.6916174, 55.8056826]}, "properties": {"stop": "7114", "name": "Б. Оленья ул.", "routes": [25]}}, {"type": "Feature", "geometry": {"type": "Point", "coordinates": [37.68838214, 55.80262127]}, "properties": {"stop": "7115", "name": "Майский просек", "routes": [25]}}, {"type": "Feature", "geometry": {"type": "Point", "coordinates": [37.682814, 55.79579391]}, "properties": {"stop": "7116", "name": "Охотничья улица", "routes": [25]}}, {"type": "Feature", "geometry": {"type": "Point", "coordinates": [37.68047038, 55.79263076]}, "properties": {"stop": "7117", "name": "ПКиО «Сокольники»", "routes": [25]}}, {"type": "Feature", "geometry": {"type": "Point", "coordinates": [37.68489199, 55.81570202]}, "properties": {"stop": "7120", "name": "Ростокинский проезд", "routes": [11]}}, {"type": "Feature", "geometry": {"type": "Point", "coordinates": [37.73645468, 55.76110903]}, "properties": {"stop": "7143", "name": "3-я улица Соколиной Горы", "routes": [12]}}, {"type": "Feature", "geometry": {"type": "Point", "coordinates": [37.716869, 55.78742708]}, "properties": {"stop": "7144", "name": "Улица Измайловский Вал", "routes": [11]}}, {"type": "Feature", "geometry": {"type": "Point", "coordinates": [37.68398277, 55.81532221]}, "properties": {"stop": "7163", "name": "Ростокинский проезд", "routes": [11, 25]}}, {"type": "Feature", "geometry": {"type": "Point", "coordinates": [37.65853611, 55.82292335]}, "properties": {"stop": "7164", "name": "Улица Бориса Галушкина, 17", "routes": [11, 25]}}, {"type": "Feature", "geometry": {"type": "Point", "coordinates": [37.6524134, 55.82497515]}, "properties": {"stop": "7165", "name": "Ярославская улица", "routes": [11, 25]}}, {"type": "Feature", "geometry": {"type": "Point", "coordinates": [37.66409171, 55.73134335]}, "properties": {"stop": "7193", "name": "Метро «Пролетарская»", "routes": [12]}}, {"type": "Feature", "geometry": {"type": "Point", "coordinates": [37.68563378, 55.81514063]}, "properties": {"stop": "7195", "name": "Ростокинский проезд", "routes": [25]}}, {"type": "Feature", "geometry": {"type": "Point", "coordinates": [37.64162925, 55.77974859]}, "properties": {"stop": "7258", "name": "Астраханский переулок", "routes": [7, 50]}}, {"type": "Feature", "geometry": {"type": "Point", "coordinates": [37.54784886, 55.68637382]}, "properties": {"stop": "7414", "name": "Центр здоровья детей", "routes": [26]}}, {"type": "Feature", "geometry": {"type": "Point", "coordinates": [37.60819923, 55.71594899]}, "properties": {"stop": "7509", "name": "Улица Лестева", "routes": [26]}}, {"type": "Feature", "geometry": {"type": "Point", "coordinates": [37.60926929, 55.7188024]}, "properties": {"stop": "7510", "name": "Метро «Шаболовская»", "routes": [26]}}, {"type": "Feature", "geometry": {"type": "Point", "coordinates": [37.61079894, 55.72283532]}, "properties": {"stop": "7511", "name": "Фабрика «Ударница»", "routes": [26]}}, {"type": "Feature", "geometry": {"type": "Point", "coordinates": [37.61037693, 55.72271058]}, "properties": {"stop": "7514", "name": "Фабрика «Ударница»", "routes": [26]}}, {"type": "Feature", "geometry": {"type": "Point", "coordinates": [37.60887152, 55.71861051]}, "properties": {"stop": "7515", "name": "Метро «Шаболовская»", "routes": [26]}}, {"type": "Feature", "geometry": {"type": "Point", "coordinates": [37.60710998, 55.71416264]}, "properties": {"stop": "7516", "name": "Улица Лестева", "routes": [26]}}, {"type": "Feature", "geometry": {"type": "Point", "coordinates": [37.53774477, 55.69200226]}, "properties": {"stop": "7520", "name": "Метро «Университет»", "routes": [26]}}, {"type": "Feature", "geometry": {"type": "Point", "coordinates": [37.53936972, 55.6911226]}, "properties": {"stop": "7521", "name": "Драмтеатр", "routes": [26]}}, {"type": "Feature", "geometry": {"type": "Point", "coordinates": [37.54392267, 55.68842872]}, "properties": {"stop": "7522", "name": "Ленинский проспект", "routes": [26]}}, {"type": "Feature", "geometry": {"type": "Point", "coordinates": [37.55110568, 55.68437825]}, "properties": {"stop": "7523", "name": "Черёмушкинский рынок", "routes": [26]}}, {"type": "Feature", "geometry": {"type": "Point", "coordinates": [37.55548116, 55.68495853]}, "properties": {"stop": "7524", "name": "Улица Вавилова", "routes": [26]}}, {"type": "Feature", "geometry": {"type": "Point", "coordinates": [37.55918413, 55.68366332]}, "properties": {"stop": "7525", "name": "Улица Ивана Бабушкина", "routes": [26]}}, {"type": "Feature", "geometry": {"type": "Point", "coordinates": [37.56600375, 55.68145099]}, "properties": {"stop": "7526", "name": "Метро «Профсоюзная»", "routes": [26]}}, {"type": "Feature", "geometry": {"type": "Point", "coordinates": [37.57433277, 55.67855872]}, "properties": {"stop": "7527", "name": "Новочерёмушкинская улица", "routes": [26]}}, {"type": "Feature", "geometry": {"type": "Point", "coordinates": [37.57846359, 55.67715419]}, "properties": {"stop": "7528", "name": "Центр детского творчества", "routes": [26]}}, {"type": "Feature", "geometry": {"type": "Point", "coordinates": [37.58466175, 55.67963432]}, "properties": {"stop": "7529", "name": "Черемушки", "routes": [26]}}, {"type": "Feature", "geometry": {"type": "Point", "coordinates": [37.59001361, 55.68288996]}, "properties": {"stop": "7530", "name": "Улица Дмитрия Ульянова", "routes": [26]}}, {"type": "Feature", "geometry": {"type": "Point", "coordinates": [37.59387645, 55.68642839]}, "properties": {"stop": "7531", "name": "Улица Винокурова", "routes": [26]}}, {"type": "Feature", "geometry": {"type": "Point", "coordinates": [37.59617088, 55.68861124]}, "properties": {"stop": "7532", "name": "Улица Шверника", "routes": [26]}}, {"type": "Feature", "geometry": {"type": "Point", "coordinates": [37.60281273, 55.69210366]}, "properties": {"stop": "7533", "name": "Загородное шоссе", "routes": [26]}}, {"type": "Feature", "geometry": {"type": "Point", "coordinates": [37.60764812, 55.69395605]}, "properties": {"stop": "7534", "name": "Севастопольский просп., 1", "routes": [26]}}, {"type": "Feature", "geometry": {"type": "Point", "coordinates": [37.6118449, 55.69713106]}, "properties": {"stop": "7535", "name": "Больница имени Алексеева", "routes": [26]}}, {"type": "Feature", "geometry": {"type": "Point", "coordinates": [37.61441684, 55.69992624]}, "properties": {"stop": "7536", "name": "Спортивная школа «Тринта»", "routes": [26]}}, {"type": "Feature", "geometry": {"type": "Point", "coordinates": [37.61255573, 55.70431787]}, "properties": {"stop": "7537", "name": "Духовской переулок", "routes": [26]}}, {"type": "Feature", "geometry": {"type": "Point", "coordinates": [37.61074575, 55.70782666]}, "properties": {"stop": "7538", "name": "3-я Рощинская улица", "routes": [26]}}, {"type": "Feature", "geometry": {"type": "Point", "coordinates": [37.60704013, 55.70868646]}, "properties": {"stop": "7539", "name": "3-й Верхний Михайловский проезд", "routes": [26]}}, {"type": "Feature", "geometry": {"type": "Point", "coordinates": [37.60602967, 55.71094042]}, "properties": {"stop": "7541", "name": "Серпуховский Вал", "routes": [26]}}, {"type": "Feature", "geometry": {"type": "Point", "coordinates": [37.60920888, 55.70826712]}, "properties": {"stop": "7542", "name": "3-я Рощинская улица", "routes": [26]}}, {"type": "Feature", "geometry": {"type": "Point", "coordinates": [37.61190382, 55.70472969]}, "properties": {"stop": "7543", "name": "Духовской переулок", "routes": [26]}}, {"type": "Feature", "geometry": {"type": "Point", "coordinates": [37.61458372, 55.70032311]}, "properties": {"stop": "7544", "name": "Спортивная школа «Тринта»", "routes": [26]}}, {"type": "Feature", "geometry": {"type": "Point", "coordinates": [37.61206706, 55.69757043]}, "properties": {"stop": "7545", "name": "Больница имени Алексеева", "routes": [26]}}, {"type": "Feature", "geometry": {"type": "Point", "coordinates": [37.60668363, 55.69370774]}, "properties": {"stop": "7546", "name": "Севастопольский проспект, 1", "routes": [26]}}, {"type": "Feature", "geometry": {"type": "Point", "coordinates": [37.60230172, 55.69202928]}, "properties": {"stop": "7547", "name": "Загородное шоссе", "routes": [26]}}, {"type": "Feature", "geometry": {"type": "Point", "coordinates": [37.59646542, 55.68907905]}, "properties": {"stop": "7548", "name": "Ул. Шверника", "routes": [26]}}, {"type": "Feature", "geometry": {"type": "Point", "coordinates": [37.59352235, 55.686293]}, "properties": {"stop": "7549", "name": "Ул. Винокурова", "routes": [26]}}, {"type": "Feature", "geometry": {"type": "Point", "coordinates": [37.58960901, 55.68269583]}, "properties": {"stop": "7550", "name": "Ул. Дмитрия Ульянова", "routes": [26]}}, {"type": "Feature", "geometry": {"type": "Point", "coordinates": [37.5851882, 55.68021859]}, "properties": {"stop": "7551", "name": "Черемушки", "routes": [26]}}, {"type": "Feature", "geometry": {"type": "Point", "coordinates": [37.57975688, 55.67715779]}, "properties": {"stop": "7552", "name": "Центр детского творчества", "routes": [26]}}, {"type": "Feature", "geometry": {"type": "Point", "coordinates": [37.57396122, 55.67881237]}, "properties": {"stop": "7553", "name": "Новочеремушкинская ул.", "routes": [26]}}, {"type": "Feature", "geometry": {"type": "Point", "coordinates": [37.56752311, 55.681021]}, "properties": {"stop": "7554", "name": "Метро «Профсоюзная»", "routes": [26]}}, {"type": "Feature", "geometry": {"type": "Point", "coordinates": [37.56003437, 55.68357592]}, "properties": {"stop": "7555", "name": "Улица Ивана Бабушкина", "routes": [26]}}, {"type": "Feature", "geometry": {"type": "Point", "coordinates": [37.55475974, 55.6853891]}, "properties": {"stop": "7556", "name": "Улица Вавилова", "routes": [26]}}, {"type": "Feature", "geometry": {"type": "Point", "coordinates": [37.68839958, 55.74728437]}, "properties": {"stop": "7605", "name": "МЦД Москва-Товарная", "routes": [12]}}, {"type": "Feature", "geometry": {"type": "Point", "coordinates": [37.68921718, 55.74743741]}, "properties": {"stop": "7606", "name": "МЦД Москва-Товарная", "routes": [12]}}, {"type": "Feature", "geometry": {"type": "Point", "coordinates": [37.58852605, 55.59872098]}, "properties": {"stop": "7879", "name": "Поликлиника", "routes": [1]}}, {"type": "Feature", "geometry": {"type": "Point", "coordinates": [37.5903004, 55.60611312]}, "properties": {"stop": "7880", "name": "Кировоградские пруды", "routes": [1]}}, {"type": "Feature", "geometry": {"type": "Point", "coordinates": [37.59605983, 55.62456713]}, "properties": {"stop": "7883", "name": "Кинотеатр «Ашхабад»", "routes": [1]}}, {"type": "Feature", "geometry": {"type": "Point", "coordinates": [37.59083221, 55.60913901]}, "properties": {"stop": "7884", "name": "Чертановская ул., 44", "routes": [1]}}, {"type": "Feature", "geometry": {"type": "Point", "coordinates": [37.59010077, 55.60600164]}, "properties": {"stop": "7885", "name": "Кировоградские пруды", "routes": [1]}}, {"type": "Feature", "geometry": {"type": "Point", "coordinates": [37.77092625, 55.79007904]}, "properties": {"stop": "7894", "name": "Галерея «Измайлово»", "routes": [11, 12]}}, {"type": "Feature", "geometry": {"type": "Point", "coordinates": [37.7708356, 55.79019455]}, "properties": {"stop": "7896", "name": "Галерея «Измайлово»", "routes": [11, 12]}}, {"type": "Feature", "geometry": {"type": "Point", "coordinates": [37.76108428, 55.78678655]}, "properties": {"stop": "7897", "name": "Главная аллея", "routes": [11, 12]}}, {"type": "Feature", "geometry": {"type": "Point", "coordinates": [37.67853812, 55.71521257]}, "properties": {"stop": "8098", "name": "МЦК Дубровка", "routes": [12]}}, {"type": "Feature", "geometry": {"type": "Point", "coordinates": [37.67850074, 55.71421404]}, "properties": {"stop": "8439", "name": "МЦК Дубровка", "routes": [12]}}, {"type": "Feature", "geometry": {"type": "Point", "coordinates": [37.68172587, 55.74677458]}, "properties": {"stop": "8459", "name": "Метро «Площадь Ильича»", "routes": [12]}}, {"type": "Feature", "geometry": {"type": "Point", "coordinates": [37.46914555, 55.81008377]}, "properties": {"stop": "851", "name": "Диспансер", "routes": [28]}}, {"type": "Feature", "geometry": {"type": "Point", "coordinates": [37.47476729, 55.81029249]}, "properties": {"stop": "852", "name": "Покровское-Стрешнево", "routes": [28]}}, {"type": "Feature", "geometry": {"type": "Point", "coordinates": [37.46984677, 55.8102312]}, "properties": {"stop": "853", "name": "Диспансер", "routes": [28]}}, {"type": "Feature", "geometry": {"type": "Point", "coordinates": [37.4582395, 55.8069643]}, "properties": {"stop": "854", "name": "Медицинский центр имени Бурназяна", "routes": [28]}}, {"type": "Feature", "geometry": {"type": "Point", "coordinates": [37.71483784, 55.79467081]}, "properties": {"stop": "8595", "name": "Метро «Преображенская площадь»", "routes": [11]}}, {"type": "Feature", "geometry": {"type": "Point", "coordinates": [37.7329065, 55.81522012]}, "properties": {"stop": "8604", "name": "Метро «Бульвар Рокоссовского»", "routes": [7]}}, {"type": "Feature", "geometry": {"type": "Point", "coordinates": [37.73418276, 55.81425897]}, "properties": {"stop": "8605", "name": "Метро «Бульвар Рокоссовского»", "routes": [7]}}, {"type": "Feature", "geometry": {"type": "Point", "coordinates": [37.66152474, 55.72975115]}, "properties": {"stop": "8610", "name": "Динамовская улица", "routes": [12]}}, {"type": "Feature", "geometry": {"type": "Point", "coordinates": [37.66331442, 55.72684475]}, "properties": {"stop": "8611", "name": "Арбатецкая улица", "routes": [12]}}, {"type": "Feature", "geometry": {"type": "Point", "coordinates": [37.66354269, 55.72674768]}, "properties": {"stop": "8612", "name": "Арбатецкая улица", "routes": [12]}}, {"type": "Feature", "geometry": {"type": "Point", "coordinates": [37.66156425, 55.73006156]}, "properties": {"stop": "8613", "name": "Динамовская улица", "routes": [12]}}, {"type": "Feature", "geometry": {"type": "Point", "coordinates": [37.71451347, 55.79762528]}, "properties": {"stop": "8630", "name": "Метро «Преображенская площадь»", "routes": [7, 11]}}, {"type": "Feature", "geometry": {"type": "Point", "coordinates": [37.75092424, 55.78665204]}, "properties": {"stop": "8843", "name": "Метро «Партизанская»", "routes": [11, 12]}}, {"type": "Feature", "geometry": {"type": "Point", "coordinates": [37.75022768, 55.78654187]}, "properties": {"stop": "8844", "name": "Метро «Партизанская»", "routes": [11, 12]}}]}